{
    "links": {
        "self": "http://www.neowsapp.com/rest/v1/neo/3163754?api_key=iIulBulltgU6a56xZRHN4H3l9WmuAYTsLGpBGhQ2"
    },
    "id": "3163754",
    "neo_reference_id": "3163754",
    "name": "(2003 UC10)",
    "designation": "2003 UC10",
    "nasa_jpl_url": "http://ssd.jpl.nasa.gov/sbdb.cgi?sstr=3163754",
    "absolute_magnitude_h": 23.9,
    "estimated_diameter": {
        "kilometers": {
            "estimated_diameter_min": 0.04411182,
            "estimated_diameter_max": 0.0986370281
        },
        "meters": {
            "estimated_diameter_min": 44.1118199997,
            "estimated_diameter_max": 98.6370281305
        },
        "miles": {
            "estimated_diameter_min": 0.0274098057,
            "estimated_diameter_max": 0.0612901888
        },
        "feet": {
            "estimated_diameter_min": 144.7238235278,
            "estimated_diameter_max": 323.6123073718
        }
    },
    "is_potentially_hazardous_asteroid": false,
    "close_approach_data": [
        {
            "close_approach_date": "2003-10-05",
            "close_approach_date_full": "2003-Oct-05 02:06",
            "epoch_date_close_approach": 1065319560000,
            "relative_velocity": {
                "kilometers_per_second": "13.7896234095",
                "kilometers_per_hour": "49642.6442740528",
                "miles_per_hour": "30846.0086046191"
            },
            "miss_distance": {
                "astronomical": "0.0283492839",
                "lunar": "11.0278714371",
                "kilometers": "4240992.487465293",
                "miles": "2635230.5344473234"
            },
            "orbiting_body": "Earth"
        }
    ],
    "orbital_data": {
        "orbit_id": "12",
        "orbit_determination_date": "2017-04-06 09:13:38",
        "first_observation_date": "2003-10-20",
        "last_observation_date": "2003-11-02",
        "data_arc_in_days": 13,
        "observations_used": 26,
        "orbit_uncertainty": "9",
        "minimum_orbit_intersection": ".0118112",
        "jupiter_tisserand_invariant": "3.193",
        "epoch_osculation": "2452935.5",
        "eccentricity": ".6369399566117528",
        "semi_major_axis": "2.431892719695876",
        "inclination": "1.519210220307768",
        "ascending_node_longitude": "68.73626113709051",
        "orbital_period": "1385.20817444679",
        "perihelion_distance": ".882923076328347",
        "perihelion_argument": "254.7373303202531",
        "aphelion_distance": "3.980862363063404",
        "perihelion_time": "2452883.697905742253",
        "mean_anomaly": "13.46278074069023",
        "mean_motion": ".2598887348782597",
        "equinox": "J2000",
        "orbit_class": {
            "orbit_class_type": "APO",
            "orbit_class_description": "Near-Earth asteroid orbits which cross the Earth’s orbit similar to that of 1862 Apollo",
            "orbit_class_range": "a (semi-major axis) > 1.0 AU; q (perihelion) < 1.017 AU"
        }
    },
    "is_sentry_object": false
}